ATLAS CENTAUR R/B       
1 06155U 72065B   25364.29764113  .00002105  00000+0  29117-3 0  9990
2 06155  35.0026 352.3454 0033507 147.4856 212.7917 14.77460914830995
SL-8 R/B                
1 08459U 75112B   25364.84706671  .00000523  00000+0  18063-3 0  9991
2 08459  74.0604 145.5519 0016710 255.1809 104.7494 14.38159035621977
SL-3 R/B                
1 10114U 77057B   25364.91236967  .00019041  00000+0  42702-3 0  9998
2 10114  97.5687 168.9545 0007668 162.9224 197.2283 15.43427503657714
SEASAT 1                
1 10967U 78064A   25364.87569567  .00000809  00000+0  26471-3 0  9990
2 10967 108.0141 341.0855 0001258 259.3938 100.7066 14.46084347496562
SL-14 R/B               
1 11267U 79011B   25364.83137296  .00001238  00000+0  12009-3 0  9992
2 11267  82.5241 161.8856 0014702 289.5677  70.3955 14.91796891518518
SL-8 R/B                
1 11574U 79089B   25364.93984425  .00000401  00000+0  12941-3 0  9999
2 11574  74.0671 218.2945 0014885  45.3080 314.9286 14.42295747426192
SL-14 R/B               
1 11672U 80005B   25364.53075346  .00001051  00000+0  10406-3 0  9993
2 11672  82.5139  12.8242 0016754  38.8291 321.4128 14.90815789466188
SL-8 R/B                
1 12139U 81003B   25364.46267905  .00027006  00000+0  71372-3 0  9994
2 12139  82.9359 353.8956 0276563  59.4532 303.3677 15.07654314304237
SL-3 R/B                
1 12465U 81046B   25364.82504260  .00017915  00000+0  44503-3 0  9995
2 12465  81.2321  12.2956 0017986 257.5786 102.3443 15.40026515427822
SL-3 R/B                
1 12904U 81103B   25364.89088127  .00010854  00000+0  49460-3 0  9995
2 12904  81.1597 294.0934 0013411 150.1775 210.0224 15.20473401962775
SL-3 R/B                
1 13068U 82013B   25364.93013024  .00007563  00000+0  33475-3 0  9999
2 13068  81.1746 241.3159 0023794  52.7616 307.5781 15.21263518393891
SL-3 R/B                
1 13154U 82039B   25364.93374574  .00005399  00000+0  33080-3 0  9990
2 13154  81.1701 295.1636 0029503 190.4530 169.6086 15.09645082371262
