CCSDS_OMM_VERS = 2.0
CREATION_DATE  = 
ORIGINATOR     = 

OBJECT_NAME    = ATLAS CENTAUR R/B
OBJECT_ID      = 1972-065B
CENTER_NAME    = EARTH
REF_FRAME      = TEME
TIME_SYSTEM    = UTC
MEAN_ELEMENT_THEORY = SGP/SGP4

EPOCH          = 2025-12-30T07:08:36.193632
MEAN_MOTION    = 14.77460914
ECCENTRICITY   = .00335076
INCLINATION    = 35.0026
RA_OF_ASC_NODE = 352.3454
ARG_OF_PERICENTER = 147.4856
MEAN_ANOMALY   = 212.7917

EPHEMERIS_TYPE = 0
CLASSIFICATION_TYPE = U
NORAD_CAT_ID   = 6155
ELEMENT_SET_NO = 999
REV_AT_EPOCH   = 83099
BSTAR          = .29116917E-3
MEAN_MOTION_DOT = .2105E-4
MEAN_MOTION_DDOT = 0

CCSDS_OMM_VERS = 2.0
CREATION_DATE  = 
ORIGINATOR     = 

OBJECT_NAME    = SL-8 R/B
OBJECT_ID      = 1975-112B
CENTER_NAME    = EARTH
REF_FRAME      = TEME
TIME_SYSTEM    = UTC
MEAN_ELEMENT_THEORY = SGP/SGP4

EPOCH          = 2025-12-30T20:19:46.563744
MEAN_MOTION    = 14.38159035
ECCENTRICITY   = .00167103
INCLINATION    = 74.0604
RA_OF_ASC_NODE = 145.5519
ARG_OF_PERICENTER = 255.1809
MEAN_ANOMALY   = 104.7494

EPHEMERIS_TYPE = 0
CLASSIFICATION_TYPE = U
NORAD_CAT_ID   = 8459
ELEMENT_SET_NO = 999
REV_AT_EPOCH   = 62197
BSTAR          = .18063045E-3
MEAN_MOTION_DOT = .523E-5
MEAN_MOTION_DDOT = 0

CCSDS_OMM_VERS = 2.0
CREATION_DATE  = 
ORIGINATOR     = 

OBJECT_NAME    = SL-3 R/B
OBJECT_ID      = 1977-057B
CENTER_NAME    = EARTH
REF_FRAME      = TEME
TIME_SYSTEM    = UTC
MEAN_ELEMENT_THEORY = SGP/SGP4

EPOCH          = 2025-12-30T21:53:48.739488
MEAN_MOTION    = 15.43427503
ECCENTRICITY   = .00076682
INCLINATION    = 97.5687
RA_OF_ASC_NODE = 168.9545
ARG_OF_PERICENTER = 162.9224
MEAN_ANOMALY   = 197.2283

EPHEMERIS_TYPE = 0
CLASSIFICATION_TYPE = U
NORAD_CAT_ID   = 10114
ELEMENT_SET_NO = 999
REV_AT_EPOCH   = 65771
BSTAR          = .42702433E-3
MEAN_MOTION_DOT = .19041E-3
MEAN_MOTION_DDOT = 0

CCSDS_OMM_VERS = 2.0
CREATION_DATE  = 
ORIGINATOR     = 

OBJECT_NAME    = SEASAT 1
OBJECT_ID      = 1978-064A
CENTER_NAME    = EARTH
REF_FRAME      = TEME
TIME_SYSTEM    = UTC
MEAN_ELEMENT_THEORY = SGP/SGP4

EPOCH          = 2025-12-30T21:01:00.105888
MEAN_MOTION    = 14.46084347
ECCENTRICITY   = .00012584
INCLINATION    = 108.0141
RA_OF_ASC_NODE = 341.0855
ARG_OF_PERICENTER = 259.3938
MEAN_ANOMALY   = 100.7066

EPHEMERIS_TYPE = 0
CLASSIFICATION_TYPE = U
NORAD_CAT_ID   = 10967
ELEMENT_SET_NO = 999
REV_AT_EPOCH   = 49656
BSTAR          = .26470966E-3
MEAN_MOTION_DOT = .809E-5
MEAN_MOTION_DDOT = 0

CCSDS_OMM_VERS = 2.0
CREATION_DATE  = 
ORIGINATOR     = 

OBJECT_NAME    = SL-14 R/B
OBJECT_ID      = 1979-011B
CENTER_NAME    = EARTH
REF_FRAME      = TEME
TIME_SYSTEM    = UTC
MEAN_ELEMENT_THEORY = SGP/SGP4

EPOCH          = 2025-12-30T19:57:10.623744
MEAN_MOTION    = 14.91796891
ECCENTRICITY   = .00147024
INCLINATION    = 82.5241
RA_OF_ASC_NODE = 161.8856
ARG_OF_PERICENTER = 289.5677
MEAN_ANOMALY   = 70.3955

EPHEMERIS_TYPE = 0
CLASSIFICATION_TYPE = U
NORAD_CAT_ID   = 11267
ELEMENT_SET_NO = 999
REV_AT_EPOCH   = 51851
BSTAR          = .12008918E-3
MEAN_MOTION_DOT = .1238E-4
MEAN_MOTION_DDOT = 0

CCSDS_OMM_VERS = 2.0
CREATION_DATE  = 
ORIGINATOR     = 

OBJECT_NAME    = SL-8 R/B
OBJECT_ID      = 1979-089B
CENTER_NAME    = EARTH
REF_FRAME      = TEME
TIME_SYSTEM    = UTC
MEAN_ELEMENT_THEORY = SGP/SGP4

EPOCH          = 2025-12-30T22:33:22.543200
MEAN_MOTION    = 14.42295747
ECCENTRICITY   = .00148855
INCLINATION    = 74.0671
RA_OF_ASC_NODE = 218.2945
ARG_OF_PERICENTER = 45.3080
MEAN_ANOMALY   = 314.9286

EPHEMERIS_TYPE = 0
CLASSIFICATION_TYPE = U
NORAD_CAT_ID   = 11574
ELEMENT_SET_NO = 999
REV_AT_EPOCH   = 42619
BSTAR          = .12940818E-3
MEAN_MOTION_DOT = .401E-5
MEAN_MOTION_DDOT = 0

CCSDS_OMM_VERS = 2.0
CREATION_DATE  = 
ORIGINATOR     = 

OBJECT_NAME    = SL-14 R/B
OBJECT_ID      = 1980-005B
CENTER_NAME    = EARTH
REF_FRAME      = TEME
TIME_SYSTEM    = UTC
MEAN_ELEMENT_THEORY = SGP/SGP4

EPOCH          = 2025-12-30T12:44:17.098944
MEAN_MOTION    = 14.90815789
ECCENTRICITY   = .0016754
INCLINATION    = 82.5139
RA_OF_ASC_NODE = 12.8242
ARG_OF_PERICENTER = 38.8291
MEAN_ANOMALY   = 321.4128

EPHEMERIS_TYPE = 0
CLASSIFICATION_TYPE = U
NORAD_CAT_ID   = 11672
ELEMENT_SET_NO = 999
REV_AT_EPOCH   = 46618
BSTAR          = .10406E-3
MEAN_MOTION_DOT = .1051E-4
MEAN_MOTION_DDOT = 0

CCSDS_OMM_VERS = 2.0
CREATION_DATE  = 
ORIGINATOR     = 

OBJECT_NAME    = SL-8 R/B
OBJECT_ID      = 1981-003B
CENTER_NAME    = EARTH
REF_FRAME      = TEME
TIME_SYSTEM    = UTC
MEAN_ELEMENT_THEORY = SGP/SGP4

EPOCH          = 2025-12-30T11:06:15.469920
MEAN_MOTION    = 15.07654314
ECCENTRICITY   = .02765632
INCLINATION    = 82.9359
RA_OF_ASC_NODE = 353.8956
ARG_OF_PERICENTER = 59.4532
MEAN_ANOMALY   = 303.3677

EPHEMERIS_TYPE = 0
CLASSIFICATION_TYPE = U
NORAD_CAT_ID   = 12139
ELEMENT_SET_NO = 999
REV_AT_EPOCH   = 30423
BSTAR          = .71371726E-3
MEAN_MOTION_DOT = .27006E-3
MEAN_MOTION_DDOT = 0

CCSDS_OMM_VERS = 2.0
CREATION_DATE  = 
ORIGINATOR     = 

OBJECT_NAME    = SL-3 R/B
OBJECT_ID      = 1981-046B
CENTER_NAME    = EARTH
REF_FRAME      = TEME
TIME_SYSTEM    = UTC
MEAN_ELEMENT_THEORY = SGP/SGP4

EPOCH          = 2025-12-30T19:48:03.680640
MEAN_MOTION    = 15.40026515
ECCENTRICITY   = .00179865
INCLINATION    = 81.2321
RA_OF_ASC_NODE = 12.2956
ARG_OF_PERICENTER = 257.5786
MEAN_ANOMALY   = 102.3443

EPHEMERIS_TYPE = 0
CLASSIFICATION_TYPE = U
NORAD_CAT_ID   = 12465
ELEMENT_SET_NO = 999
REV_AT_EPOCH   = 42782
BSTAR          = .44503093E-3
MEAN_MOTION_DOT = .17915E-3
MEAN_MOTION_DDOT = 0

CCSDS_OMM_VERS = 2.0
CREATION_DATE  = 
ORIGINATOR     = 

OBJECT_NAME    = SL-3 R/B
OBJECT_ID      = 1981-103B
CENTER_NAME    = EARTH
REF_FRAME      = TEME
TIME_SYSTEM    = UTC
MEAN_ELEMENT_THEORY = SGP/SGP4

EPOCH          = 2025-12-30T21:22:52.141728
MEAN_MOTION    = 15.20473401
ECCENTRICITY   = .00134117
INCLINATION    = 81.1597
RA_OF_ASC_NODE = 294.0934
ARG_OF_PERICENTER = 150.1775
MEAN_ANOMALY   = 210.0224

EPHEMERIS_TYPE = 0
CLASSIFICATION_TYPE = U
NORAD_CAT_ID   = 12904
ELEMENT_SET_NO = 999
REV_AT_EPOCH   = 96277
BSTAR          = .49459866E-3
MEAN_MOTION_DOT = .10854E-3
MEAN_MOTION_DDOT = 0

CCSDS_OMM_VERS = 2.0
CREATION_DATE  = 
ORIGINATOR     = 

OBJECT_NAME    = SL-3 R/B
OBJECT_ID      = 1982-013B
CENTER_NAME    = EARTH
REF_FRAME      = TEME
TIME_SYSTEM    = UTC
MEAN_ELEMENT_THEORY = SGP/SGP4

EPOCH          = 2025-12-30T22:19:23.252736
MEAN_MOTION    = 15.21263518
ECCENTRICITY   = .00237946
INCLINATION    = 81.1746
RA_OF_ASC_NODE = 241.3159
ARG_OF_PERICENTER = 52.7616
MEAN_ANOMALY   = 307.5781

EPHEMERIS_TYPE = 0
CLASSIFICATION_TYPE = U
NORAD_CAT_ID   = 13068
ELEMENT_SET_NO = 999
REV_AT_EPOCH   = 39389
BSTAR          = .33474596E-3
MEAN_MOTION_DOT = .7563E-4
MEAN_MOTION_DDOT = 0

CCSDS_OMM_VERS = 2.0
CREATION_DATE  = 
ORIGINATOR     = 

OBJECT_NAME    = SL-3 R/B
OBJECT_ID      = 1982-039B
CENTER_NAME    = EARTH
REF_FRAME      = TEME
TIME_SYSTEM    = UTC
MEAN_ELEMENT_THEORY = SGP/SGP4

EPOCH          = 2025-12-30T22:24:35.631936
MEAN_MOTION    = 15.09645082
ECCENTRICITY   = .00295035
INCLINATION    = 81.1701
RA_OF_ASC_NODE = 295.1636
ARG_OF_PERICENTER = 190.4530
MEAN_ANOMALY   = 169.6086

EPHEMERIS_TYPE = 0
CLASSIFICATION_TYPE = U
NORAD_CAT_ID   = 13154
ELEMENT_SET_NO = 999
REV_AT_EPOCH   = 37126
BSTAR          = .33079836E-3
MEAN_MOTION_DOT = .5399E-4
MEAN_MOTION_DDOT = 0

